UNKNOWN                 
1 87164U          26082.25581521  .00008051  00000+0  15842-2 0  9998
2 87164  65.2046  35.5270 0107493   8.3947 351.8918 14.59461269650438
UNKNOWN                 
1 87204U          26082.56549961  .00002194  00000+0  85912-3 0  9997
2 87204  98.5305 306.3687 0046355  28.6063 331.7648 14.29865217639841
UNKNOWN                 
1 87211U          26078.26705561  .00002391  00000+0  65631-3 0  9992
2 87211  99.0867  90.0704 0051660 230.9622 143.9650 14.47315873721733
UNKNOWN                 
1 87214U          26082.29511297  .00001701  00000+0  15405-2 0  9991
2 87214 100.3292  95.8562 0068090 356.0154   4.0447 13.84330166614154
UNKNOWN                 
1 87237U          26078.43242191  .00000298  00000+0  25736-3 0  9990
2 87237  99.2394 138.6446 0103105  23.4741 352.6088 13.91849296625218
UNKNOWN                 
1 87239U          26082.48571683  .00009715  00000+0  22798-2 0  9990
2 87239  82.8737 357.1472 0021962  74.5124 285.8499 14.54254189642503
UNKNOWN                 
1 87245U          26082.56806830  .00004155  00000+0  86887-3 0  9994
2 87245  65.6394 137.9307 0424823  70.5287  72.6684 14.16845308628484
UNKNOWN                 
1 87271U          26082.66085699  .00008601  00000+0  15185-2 0  9998
2 87271  65.7550 324.6961 0420225  20.3475 341.3805 14.23450997626723
UNKNOWN                 
1 87280U          26082.00668166  .00000367  00000+0  68715-3 0  9991
2 87280  64.6179 347.3670 0126249 241.4312 117.3974 13.48657482547377
UNKNOWN                 
1 87293U          26081.82512799  .00005695  00000+0  10791-2 0  9993
2 87293  65.8958 238.8395 0427946 305.7836  50.4167 14.19779373628194
UNKNOWN                 
1 87300U          26073.43709886  .00001435  00000+0  10112-2 0  9990
2 87300 100.1009  70.1924 0026085  49.6145 310.7287 13.99814165625945
UNKNOWN                 
1 87304U          26082.38746367  .00001469  00000+0  21849-3 0  9990
2 87304  74.0163 123.8524 0016121  64.2740 296.0096 14.75879638661322
