CCSDS_OMM_VERS = 2.0
CREATION_DATE  = 
ORIGINATOR     = 

OBJECT_NAME    = UNKNOWN
OBJECT_ID      = 
CENTER_NAME    = EARTH
REF_FRAME      = TEME
TIME_SYSTEM    = UTC
MEAN_ELEMENT_THEORY = SGP/SGP4

EPOCH          = 2026-03-23T06:08:22.434144
MEAN_MOTION    = 14.59461269
ECCENTRICITY   = .0107493
INCLINATION    = 65.2046
RA_OF_ASC_NODE = 35.5270
ARG_OF_PERICENTER = 8.3947
MEAN_ANOMALY   = 351.8918

EPHEMERIS_TYPE = 0
CLASSIFICATION_TYPE = U
NORAD_CAT_ID   = 87164
ELEMENT_SET_NO = 999
REV_AT_EPOCH   = 65043
BSTAR          = .15842E-2
MEAN_MOTION_DOT = .8051E-4
MEAN_MOTION_DDOT = 0

CCSDS_OMM_VERS = 2.0
CREATION_DATE  = 
ORIGINATOR     = 

OBJECT_NAME    = UNKNOWN
OBJECT_ID      = 
CENTER_NAME    = EARTH
REF_FRAME      = TEME
TIME_SYSTEM    = UTC
MEAN_ELEMENT_THEORY = SGP/SGP4

EPOCH          = 2026-03-23T13:34:19.166304
MEAN_MOTION    = 14.29865217
ECCENTRICITY   = .0046355
INCLINATION    = 98.5305
RA_OF_ASC_NODE = 306.3687
ARG_OF_PERICENTER = 28.6063
MEAN_ANOMALY   = 331.7648

EPHEMERIS_TYPE = 0
CLASSIFICATION_TYPE = U
NORAD_CAT_ID   = 87204
ELEMENT_SET_NO = 999
REV_AT_EPOCH   = 63984
BSTAR          = .85912E-3
MEAN_MOTION_DOT = .2194E-4
MEAN_MOTION_DDOT = 0

CCSDS_OMM_VERS = 2.0
CREATION_DATE  = 
ORIGINATOR     = 

OBJECT_NAME    = UNKNOWN
OBJECT_ID      = 
CENTER_NAME    = EARTH
REF_FRAME      = TEME
TIME_SYSTEM    = UTC
MEAN_ELEMENT_THEORY = SGP/SGP4

EPOCH          = 2026-03-19T06:24:33.604704
MEAN_MOTION    = 14.47315873
ECCENTRICITY   = .005166
INCLINATION    = 99.0867
RA_OF_ASC_NODE = 90.0704
ARG_OF_PERICENTER = 230.9622
MEAN_ANOMALY   = 143.9650

EPHEMERIS_TYPE = 0
CLASSIFICATION_TYPE = U
NORAD_CAT_ID   = 87211
ELEMENT_SET_NO = 999
REV_AT_EPOCH   = 72173
BSTAR          = .65631E-3
MEAN_MOTION_DOT = .2391E-4
MEAN_MOTION_DDOT = 0

CCSDS_OMM_VERS = 2.0
CREATION_DATE  = 
ORIGINATOR     = 

OBJECT_NAME    = UNKNOWN
OBJECT_ID      = 
CENTER_NAME    = EARTH
REF_FRAME      = TEME
TIME_SYSTEM    = UTC
MEAN_ELEMENT_THEORY = SGP/SGP4

EPOCH          = 2026-03-23T07:04:57.760608
MEAN_MOTION    = 13.84330166
ECCENTRICITY   = .006809
INCLINATION    = 100.3292
RA_OF_ASC_NODE = 95.8562
ARG_OF_PERICENTER = 356.0154
MEAN_ANOMALY   = 4.0447

EPHEMERIS_TYPE = 0
CLASSIFICATION_TYPE = U
NORAD_CAT_ID   = 87214
ELEMENT_SET_NO = 999
REV_AT_EPOCH   = 61415
BSTAR          = .15405E-2
MEAN_MOTION_DOT = .1701E-4
MEAN_MOTION_DDOT = 0

CCSDS_OMM_VERS = 2.0
CREATION_DATE  = 
ORIGINATOR     = 

OBJECT_NAME    = UNKNOWN
OBJECT_ID      = 
CENTER_NAME    = EARTH
REF_FRAME      = TEME
TIME_SYSTEM    = UTC
MEAN_ELEMENT_THEORY = SGP/SGP4

EPOCH          = 2026-03-19T10:22:41.253024
MEAN_MOTION    = 13.91849296
ECCENTRICITY   = .0103105
INCLINATION    = 99.2394
RA_OF_ASC_NODE = 138.6446
ARG_OF_PERICENTER = 23.4741
MEAN_ANOMALY   = 352.6088

EPHEMERIS_TYPE = 0
CLASSIFICATION_TYPE = U
NORAD_CAT_ID   = 87237
ELEMENT_SET_NO = 999
REV_AT_EPOCH   = 62521
BSTAR          = .25736E-3
MEAN_MOTION_DOT = .298E-5
MEAN_MOTION_DDOT = 0

CCSDS_OMM_VERS = 2.0
CREATION_DATE  = 
ORIGINATOR     = 

OBJECT_NAME    = UNKNOWN
OBJECT_ID      = 
CENTER_NAME    = EARTH
REF_FRAME      = TEME
TIME_SYSTEM    = UTC
MEAN_ELEMENT_THEORY = SGP/SGP4

EPOCH          = 2026-03-23T11:39:25.934112
MEAN_MOTION    = 14.54254189
ECCENTRICITY   = .0021962
INCLINATION    = 82.8737
RA_OF_ASC_NODE = 357.1472
ARG_OF_PERICENTER = 74.5124
MEAN_ANOMALY   = 285.8499

EPHEMERIS_TYPE = 0
CLASSIFICATION_TYPE = U
NORAD_CAT_ID   = 87239
ELEMENT_SET_NO = 999
REV_AT_EPOCH   = 64250
BSTAR          = .22798E-2
MEAN_MOTION_DOT = .9715E-4
MEAN_MOTION_DDOT = 0

CCSDS_OMM_VERS = 2.0
CREATION_DATE  = 
ORIGINATOR     = 

OBJECT_NAME    = UNKNOWN
OBJECT_ID      = 
CENTER_NAME    = EARTH
REF_FRAME      = TEME
TIME_SYSTEM    = UTC
MEAN_ELEMENT_THEORY = SGP/SGP4

EPOCH          = 2026-03-23T13:38:01.101120
MEAN_MOTION    = 14.16845308
ECCENTRICITY   = .0424823
INCLINATION    = 65.6394
RA_OF_ASC_NODE = 137.9307
ARG_OF_PERICENTER = 70.5287
MEAN_ANOMALY   = 72.6684

EPHEMERIS_TYPE = 0
CLASSIFICATION_TYPE = U
NORAD_CAT_ID   = 87245
ELEMENT_SET_NO = 999
REV_AT_EPOCH   = 62848
BSTAR          = .86887E-3
MEAN_MOTION_DOT = .4155E-4
MEAN_MOTION_DDOT = 0

CCSDS_OMM_VERS = 2.0
CREATION_DATE  = 
ORIGINATOR     = 

OBJECT_NAME    = UNKNOWN
OBJECT_ID      = 
CENTER_NAME    = EARTH
REF_FRAME      = TEME
TIME_SYSTEM    = UTC
MEAN_ELEMENT_THEORY = SGP/SGP4

EPOCH          = 2026-03-23T15:51:38.043936
MEAN_MOTION    = 14.23450997
ECCENTRICITY   = .0420225
INCLINATION    = 65.7550
RA_OF_ASC_NODE = 324.6961
ARG_OF_PERICENTER = 20.3475
MEAN_ANOMALY   = 341.3805

EPHEMERIS_TYPE = 0
CLASSIFICATION_TYPE = U
NORAD_CAT_ID   = 87271
ELEMENT_SET_NO = 999
REV_AT_EPOCH   = 62672
BSTAR          = .15185E-2
MEAN_MOTION_DOT = .8601E-4
MEAN_MOTION_DDOT = 0

CCSDS_OMM_VERS = 2.0
CREATION_DATE  = 
ORIGINATOR     = 

OBJECT_NAME    = UNKNOWN
OBJECT_ID      = 
CENTER_NAME    = EARTH
REF_FRAME      = TEME
TIME_SYSTEM    = UTC
MEAN_ELEMENT_THEORY = SGP/SGP4

EPOCH          = 2026-03-23T00:09:37.295424
MEAN_MOTION    = 13.48657482
ECCENTRICITY   = .0126249
INCLINATION    = 64.6179
RA_OF_ASC_NODE = 347.3670
ARG_OF_PERICENTER = 241.4312
MEAN_ANOMALY   = 117.3974

EPHEMERIS_TYPE = 0
CLASSIFICATION_TYPE = U
NORAD_CAT_ID   = 87280
ELEMENT_SET_NO = 999
REV_AT_EPOCH   = 54737
BSTAR          = .68715E-3
MEAN_MOTION_DOT = .367E-5
MEAN_MOTION_DDOT = 0

CCSDS_OMM_VERS = 2.0
CREATION_DATE  = 
ORIGINATOR     = 

OBJECT_NAME    = UNKNOWN
OBJECT_ID      = 
CENTER_NAME    = EARTH
REF_FRAME      = TEME
TIME_SYSTEM    = UTC
MEAN_ELEMENT_THEORY = SGP/SGP4

EPOCH          = 2026-03-22T19:48:11.058336
MEAN_MOTION    = 14.19779373
ECCENTRICITY   = .0427946
INCLINATION    = 65.8958
RA_OF_ASC_NODE = 238.8395
ARG_OF_PERICENTER = 305.7836
MEAN_ANOMALY   = 50.4167

EPHEMERIS_TYPE = 0
CLASSIFICATION_TYPE = U
NORAD_CAT_ID   = 87293
ELEMENT_SET_NO = 999
REV_AT_EPOCH   = 62819
BSTAR          = .10791E-2
MEAN_MOTION_DOT = .5695E-4
MEAN_MOTION_DDOT = 0

CCSDS_OMM_VERS = 2.0
CREATION_DATE  = 
ORIGINATOR     = 

OBJECT_NAME    = UNKNOWN
OBJECT_ID      = 
CENTER_NAME    = EARTH
REF_FRAME      = TEME
TIME_SYSTEM    = UTC
MEAN_ELEMENT_THEORY = SGP/SGP4

EPOCH          = 2026-03-14T10:29:25.341504
MEAN_MOTION    = 13.99814165
ECCENTRICITY   = .0026085
INCLINATION    = 100.1009
RA_OF_ASC_NODE = 70.1924
ARG_OF_PERICENTER = 49.6145
MEAN_ANOMALY   = 310.7287

EPHEMERIS_TYPE = 0
CLASSIFICATION_TYPE = U
NORAD_CAT_ID   = 87300
ELEMENT_SET_NO = 999
REV_AT_EPOCH   = 62594
BSTAR          = .10112E-2
MEAN_MOTION_DOT = .1435E-4
MEAN_MOTION_DDOT = 0

CCSDS_OMM_VERS = 2.0
CREATION_DATE  = 
ORIGINATOR     = 

OBJECT_NAME    = UNKNOWN
OBJECT_ID      = 
CENTER_NAME    = EARTH
REF_FRAME      = TEME
TIME_SYSTEM    = UTC
MEAN_ELEMENT_THEORY = SGP/SGP4

EPOCH          = 2026-03-23T09:17:56.861088
MEAN_MOTION    = 14.75879638
ECCENTRICITY   = .0016121
INCLINATION    = 74.0163
RA_OF_ASC_NODE = 123.8524
ARG_OF_PERICENTER = 64.2740
MEAN_ANOMALY   = 296.0096

EPHEMERIS_TYPE = 0
CLASSIFICATION_TYPE = U
NORAD_CAT_ID   = 87304
ELEMENT_SET_NO = 999
REV_AT_EPOCH   = 66132
BSTAR          = .21849E-3
MEAN_MOTION_DOT = .1469E-4
MEAN_MOTION_DDOT = 0

